{
"type": "FeatureCollection",
"name": "all_regions",
"crs": { "type": "name", "properties": { "name": "urn:ogc:def:crs:OGC:1.3:CRS84" } },
"features": [
{ "type": "Feature", "properties": { "zone_code": "C2000", "region": "Central", "elevation": 2000, "area_name": "Central 2000m", "region_code": "C2000", "region_name": "Central 2000m", "elevation_range": "1000-2000m", "zone": "Central", "color": "#2ecc71", "centroid_lon": 82.5, "centroid_lat": 29.0, "bounds_west": 80.0, "bounds_south": 27.0, "bounds_east": 85.0, "bounds_north": 31.0 }, "geometry": { "type": "Polygon", "coordinates": [ [ [ 80.0, 27.0 ], [ 80.0, 31.0 ], [ 85.0, 31.0 ], [ 85.0, 27.0 ], [ 80.0, 27.0 ] ] ] } },
{ "type": "Feature", "properties": { "zone_code": "C4000", "region": "Central", "elevation": 4000, "area_name": "Central 4000m", "region_code": "C4000", "region_name": "Central 4000m", "elevation_range": "2000-4000m", "zone": "Central", "color": "#27ae60", "centroid_lon": 82.5, "centroid_lat": 29.0, "bounds_west": 80.5, "bounds_south": 27.5, "bounds_east": 84.5, "bounds_north": 30.5 }, "geometry": { "type": "Polygon", "coordinates": [ [ [ 80.5, 27.5 ], [ 80.5, 30.5 ], [ 84.5, 30.5 ], [ 84.5, 27.5 ], [ 80.5, 27.5 ] ] ] } },
{ "type": "Feature", "properties": { "zone_code": "C6000", "region": "Central", "elevation": 6000, "area_name": "Central 6000m", "region_code": "C6000", "region_name": "Central 6000m", "elevation_range": "4000-6000m", "zone": "Central", "color": "#1e8449", "centroid_lon": 82.5, "centroid_lat": 29.0, "bounds_west": 81.0, "bounds_south": 28.0, "bounds_east": 84.0, "bounds_north": 30.0 }, "geometry": { "type": "Polygon", "coordinates": [ [ [ 81.0, 28.0 ], [ 81.0, 30.0 ], [ 84.0, 30.0 ], [ 84.0, 28.0 ], [ 81.0, 28.0 ] ] ] } },
{ "type": "Feature", "properties": { "zone_code": "E2000", "region": "Eastern", "elevation": 2000, "area_name": "Eastern 2000m", "region_code": "E2000", "region_name": "Eastern 2000m", "elevation_range": "1000-2000m", "zone": "Eastern", "color": "#3498db", "centroid_lon": 87.5, "centroid_lat": 27.5, "bounds_west": 85.0, "bounds_south": 26.0, "bounds_east": 90.0, "bounds_north": 29.0 }, "geometry": { "type": "Polygon", "coordinates": [ [ [ 85.0, 26.0 ], [ 85.0, 29.0 ], [ 90.0, 29.0 ], [ 90.0, 26.0 ], [ 85.0, 26.0 ] ] ] } },
{ "type": "Feature", "properties": { "zone_code": "E4000", "region": "Eastern", "elevation": 4000, "area_name": "Eastern 4000m", "region_code": "E4000", "region_name": "Eastern 4000m", "elevation_range": "2000-4000m", "zone": "Eastern", "color": "#2980b9", "centroid_lon": 87.5, "centroid_lat": 27.5, "bounds_west": 85.5, "bounds_south": 26.5, "bounds_east": 89.5, "bounds_north": 28.5 }, "geometry": { "type": "Polygon", "coordinates": [ [ [ 85.5, 26.5 ], [ 85.5, 28.5 ], [ 89.5, 28.5 ], [ 89.5, 26.5 ], [ 85.5, 26.5 ] ] ] } },
{ "type": "Feature", "properties": { "zone_code": "E6000", "region": "Eastern", "elevation": 6000, "area_name": "Eastern 6000m", "region_code": "E6000", "region_name": "Eastern 6000m", "elevation_range": "4000-6000m", "zone": "Eastern", "color": "#1f618d", "centroid_lon": 87.5, "centroid_lat": 27.5, "bounds_west": 86.0, "bounds_south": 27.0, "bounds_east": 89.0, "bounds_north": 28.0 }, "geometry": { "type": "Polygon", "coordinates": [ [ [ 86.0, 27.0 ], [ 86.0, 28.0 ], [ 89.0, 28.0 ], [ 89.0, 27.0 ], [ 86.0, 27.0 ] ] ] } },
{ "type": "Feature", "properties": { "zone_code": "W2000", "region": "Western", "elevation": 2000, "area_name": "Western 2000m", "region_code": "W2000", "region_name": "Western 2000m", "elevation_range": "1000-2000m", "zone": "Western", "color": "#e74c3c", "centroid_lon": 77.5, "centroid_lat": 30.0, "bounds_west": 75.0, "bounds_south": 28.0, "bounds_east": 80.0, "bounds_north": 32.0 }, "geometry": { "type": "Polygon", "coordinates": [ [ [ 75.0, 28.0 ], [ 75.0, 32.0 ], [ 80.0, 32.0 ], [ 80.0, 28.0 ], [ 75.0, 28.0 ] ] ] } },
{ "type": "Feature", "properties": { "zone_code": "W4000", "region": "Western", "elevation": 4000, "area_name": "Western 4000m", "region_code": "W4000", "region_name": "Western 4000m", "elevation_range": "2000-4000m", "zone": "Western", "color": "#c0392b", "centroid_lon": 77.5, "centroid_lat": 30.25, "bounds_west": 75.5, "bounds_south": 29.0, "bounds_east": 79.5, "bounds_north": 31.5 }, "geometry": { "type": "Polygon", "coordinates": [ [ [ 75.5, 29.0 ], [ 75.5, 31.5 ], [ 79.5, 31.5 ], [ 79.5, 29.0 ], [ 75.5, 29.0 ] ] ] } },
{ "type": "Feature", "properties": { "zone_code": "W6000", "region": "Western", "elevation": 6000, "area_name": "Western 6000m", "region_code": "W6000", "region_name": "Western 6000m", "elevation_range": "4000-6000m", "zone": "Western", "color": "#922b21", "centroid_lon": 77.5, "centroid_lat": 30.25, "bounds_west": 76.0, "bounds_south": 29.5, "bounds_east": 79.0, "bounds_north": 31.0 }, "geometry": { "type": "Polygon", "coordinates": [ [ [ 76.0, 29.5 ], [ 76.0, 31.0 ], [ 79.0, 31.0 ], [ 79.0, 29.5 ], [ 76.0, 29.5 ] ] ] } }
]
}
